{
  "type": "FeatureCollection",
  "features": [
    {
      "type": "Feature",
      "properties": {
        "norad_id": 34722,
        "name": "COSMOS 2251 DEB",
        "group": "cosmos-2251-debris",
        "lat": 4.878656767473536,
        "lon": 151.31673093847263,
        "alt_km": 838.2146439928447,
        "timestamp": "2025-12-14T14:39:29.764075+00:00",
        "meta_object_name": "COSMOS 2251 DEB",
        "meta_object_id": "1993-036YQ",
        "meta_epoch": "2025-12-13T09:38:24.756288",
        "meta_mean_motion": 14.11938641,
        "meta_eccentricity": 0.01671118,
        "meta_inclination": 73.8733,
        "meta_ra_of_asc_node": 334.8872,
        "meta_arg_of_pericenter": 260.3338,
        "meta_mean_anomaly": 252.9898,
        "meta_ephemeris_type": 0,
        "meta_classification_type": "U",
        "meta_norad_cat_id": 34722,
        "meta_element_set_no": 999,
        "meta_rev_at_epoch": 86254,
        "meta_bstar": 0.0012527727,
        "meta_mean_motion_dot": 2.586e-05,
        "meta_mean_motion_ddot": 0,
        "tle_line1": "1 34722U 93036YQ  25347.40167542  .00002586  00000+0  12528-2 0  9999",
        "tle_line2": "2 34722  73.8733 334.8872 0167111 260.3338 252.9898 14.11938641862544"
      },
      "geometry": {
        "type": "Point",
        "coordinates": [
          151.31673093847263,
          4.878656767473536
        ]
      }
    },
    {
      "type": "Feature",
      "properties": {
        "norad_id": 34726,
        "name": "COSMOS 2251 DEB",
        "group": "cosmos-2251-debris",
        "lat": 14.241431807219682,
        "lon": 158.58699436693576,
        "alt_km": 670.2310315298828,
        "timestamp": "2025-12-14T14:39:29.764084+00:00",
        "meta_object_name": "COSMOS 2251 DEB",
        "meta_object_id": "1993-036YU",
        "meta_epoch": "2025-12-13T18:09:58.329504",
        "meta_mean_motion": 14.59487502,
        "meta_eccentricity": 0.00419365,
        "meta_inclination": 74.0291,
        "meta_ra_of_asc_node": 344.3833,
        "meta_arg_of_pericenter": 134.9122,
        "meta_mean_anomaly": 225.546,
        "meta_ephemeris_type": 0,
        "meta_classification_type": "U",
        "meta_norad_cat_id": 34726,
        "meta_element_set_no": 999,
        "meta_rev_at_epoch": 88517,
        "meta_bstar": 0.0005540841,
        "meta_mean_motion_dot": 2.632e-05,
        "meta_mean_motion_ddot": 0,
        "tle_line1": "1 34726U 93036YU  25347.75692511  .00002632  00000+0  55408-3 0  9997",
        "tle_line2": "2 34726  74.0291 344.3833 0041936 134.9122 225.5460 14.59487502885178"
      },
      "geometry": {
        "type": "Point",
        "coordinates": [
          158.58699436693576,
          14.241431807219682
        ]
      }
    },
    {
      "type": "Feature",
      "properties": {
        "norad_id": 34728,
        "name": "COSMOS 2251 DEB",
        "group": "cosmos-2251-debris",
        "lat": 56.45862115298697,
        "lon": 42.51715526499174,
        "alt_km": 644.7119519431935,
        "timestamp": "2025-12-14T14:39:29.764094+00:00",
        "meta_object_name": "COSMOS 2251 DEB",
        "meta_object_id": "1993-036YW",
        "meta_epoch": "2025-12-12T11:30:55.868256",
        "meta_mean_motion": 14.70844464,
        "meta_eccentricity": 0.00410267,
        "meta_inclination": 74.0168,
        "meta_ra_of_asc_node": 252.2746,
        "meta_arg_of_pericenter": 49.9688,
        "meta_mean_anomaly": 310.5071,
        "meta_ephemeris_type": 0,
        "meta_classification_type": "U",
        "meta_norad_cat_id": 34728,
        "meta_element_set_no": 999,
        "meta_rev_at_epoch": 88796,
        "meta_bstar": 0.0012358203,
        "meta_mean_motion_dot": 7.631e-05,
        "meta_mean_motion_ddot": 0,
        "tle_line1": "1 34728U 93036YW  25346.47981329  .00007631  00000+0  12358-2 0  9995",
        "tle_line2": "2 34728  74.0168 252.2746 0041026  49.9688 310.5071 14.70844464887964"
      },
      "geometry": {
        "type": "Point",
        "coordinates": [
          42.51715526499174,
          56.45862115298697
        ]
      }
    },
    {
      "type": "Feature",
      "properties": {
        "norad_id": 34729,
        "name": "COSMOS 2251 DEB",
        "group": "cosmos-2251-debris",
        "lat": -32.2990630991838,
        "lon": -174.83755675319736,
        "alt_km": 627.5913030227302,
        "timestamp": "2025-12-14T14:39:29.764104+00:00",
        "meta_object_name": "COSMOS 2251 DEB",
        "meta_object_id": "1993-036YX",
        "meta_epoch": "2025-12-13T19:04:50.566944",
        "meta_mean_motion": 14.82843405,
        "meta_eccentricity": 0.00118442,
        "meta_inclination": 74.0184,
        "meta_ra_of_asc_node": 356.3396,
        "meta_arg_of_pericenter": 114.6987,
        "meta_mean_anomaly": 66.0535,
        "meta_ephemeris_type": 0,
        "meta_classification_type": "U",
        "meta_norad_cat_id": 34729,
        "meta_element_set_no": 999,
        "meta_rev_at_epoch": 88473,
        "meta_bstar": 0.0019829611,
        "meta_mean_motion_dot": 0.00016081,
        "meta_mean_motion_ddot": 0,
        "tle_line1": "1 34729U 93036YX  25347.79502971  .00016081  00000+0  19830-2 0  9995",
        "tle_line2": "2 34729  74.0184 356.3396 0011844 114.6987  66.0535 14.82843405884734"
      },
      "geometry": {
        "type": "Point",
        "coordinates": [
          -174.83755675319736,
          -32.2990630991838
        ]
      }
    },
    {
      "type": "Feature",
      "properties": {
        "norad_id": 34732,
        "name": "COSMOS 2251 DEB",
        "group": "cosmos-2251-debris",
        "lat": -19.395007121886678,
        "lon": -84.5284318113366,
        "alt_km": 717.2073445880987,
        "timestamp": "2025-12-14T14:39:29.764114+00:00",
        "meta_object_name": "COSMOS 2251 DEB",
        "meta_object_id": "1993-036ZA",
        "meta_epoch": "2025-12-12T07:07:51.873888",
        "meta_mean_motion": 14.47300137,
        "meta_eccentricity": 0.00404184,
        "meta_inclination": 74.0452,
        "meta_ra_of_asc_node": 94.0128,
        "meta_arg_of_pericenter": 245.1323,
        "meta_mean_anomaly": 145.4668,
        "meta_ephemeris_type": 0,
        "meta_classification_type": "U",
        "meta_norad_cat_id": 34732,
        "meta_element_set_no": 999,
        "meta_rev_at_epoch": 88137,
        "meta_bstar": 0.00025007541,
        "meta_mean_motion_dot": 8.97e-06,
        "meta_mean_motion_ddot": 0,
        "tle_line1": "1 34732U 93036ZA  25346.29712817  .00000897  00000+0  25008-3 0  9998",
        "tle_line2": "2 34732  74.0452  94.0128 0040418 245.1323 145.4668 14.47300137881375"
      },
      "geometry": {
        "type": "Point",
        "coordinates": [
          -84.5284318113366,
          -19.395007121886678
        ]
      }
    },
    {
      "type": "Feature",
      "properties": {
        "norad_id": 34736,
        "name": "COSMOS 2251 DEB",
        "group": "cosmos-2251-debris",
        "lat": -65.54463233904669,
        "lon": -6.994832878302363,
        "alt_km": 418.2956694375516,
        "timestamp": "2025-12-14T14:39:29.764124+00:00",
        "meta_object_name": "COSMOS 2251 DEB",
        "meta_object_id": "1993-036ZE",
        "meta_epoch": "2025-12-13T15:42:48.765312",
        "meta_mean_motion": 15.48601194,
        "meta_eccentricity": 0.00172876,
        "meta_inclination": 74.0007,
        "meta_ra_of_asc_node": 34.2216,
        "meta_arg_of_pericenter": 344.947,
        "meta_mean_anomaly": 15.1225,
        "meta_ephemeris_type": 0,
        "meta_classification_type": "U",
        "meta_norad_cat_id": 34736,
        "meta_element_set_no": 999,
        "meta_rev_at_epoch": 88462,
        "meta_bstar": 0.007818737,
        "meta_mean_motion_dot": 0.00443924,
        "meta_mean_motion_ddot": 0,
        "tle_line1": "1 34736U 93036ZE  25347.65473108  .00443924  00000+0  78187-2 0  9997",
        "tle_line2": "2 34736  74.0007  34.2216 0017287 344.9470  15.1225 15.48601194884620"
      },
      "geometry": {
        "type": "Point",
        "coordinates": [
          -6.994832878302363,
          -65.54463233904669
        ]
      }
    },
    {
      "type": "Feature",
      "properties": {
        "norad_id": 34738,
        "name": "COSMOS 2251 DEB",
        "group": "cosmos-2251-debris",
        "lat": -43.342937000726984,
        "lon": -24.534278709504854,
        "alt_km": 727.1310046237004,
        "timestamp": "2025-12-14T14:39:29.764134+00:00",
        "meta_object_name": "COSMOS 2251 DEB",
        "meta_object_id": "1993-036ZG",
        "meta_epoch": "2025-12-13T21:36:08.072352",
        "meta_mean_motion": 14.46305602,
        "meta_eccentricity": 0.00474134,
        "meta_inclination": 74.0145,
        "meta_ra_of_asc_node": 141.0972,
        "meta_arg_of_pericenter": 287.1439,
        "meta_mean_anomaly": 200.0647,
        "meta_ephemeris_type": 0,
        "meta_classification_type": "U",
        "meta_norad_cat_id": 34738,
        "meta_element_set_no": 999,
        "meta_rev_at_epoch": 87875,
        "meta_bstar": 0.00045207988,
        "meta_mean_motion_dot": 1.615e-05,
        "meta_mean_motion_ddot": 0,
        "tle_line1": "1 34738U 93036ZG  25347.90009343  .00001615  00000+0  45208-3 0  9999",
        "tle_line2": "2 34738  74.0145 141.0972 0047413 287.1439 200.0647 14.46305602878750"
      },
      "geometry": {
        "type": "Point",
        "coordinates": [
          -24.534278709504854,
          -43.342937000726984
        ]
      }
    }
  ]
}